{"type": "FeatureCollection", "features": [ {"type": "Feature", "properties": {"norad_id": 66442, "name": "STARLINK-34724", "group": "last-30-days", "lat": -40.5899720702437, "lon": -52.63359643972321, "alt_km": 440.48829265920085, "timestamp": "2025-12-10T11:33:52.171032+00:00", "meta": {"OBJECT_NAME": "STARLINK-34724", "OBJECT_ID": "2025-259W", "EPOCH": "2025-12-10T04:00:01.998720", "MEAN_MOTION": 15.44131689, "ECCENTRICITY": 0.0001085, "INCLINATION": 42.9998, "RA_OF_ASC_NODE": 62.3425, "ARG_OF_PERICENTER": 260.1871, "MEAN_ANOMALY": 39.1599, "EPHEMERIS_TYPE": 0, "CLASSIFICATION_TYPE": "U", "NORAD_CAT_ID": 66442, "ELEMENT_SET_NO": 999, "REV_AT_EPOCH": 586, "BSTAR": -0.047755, "MEAN_MOTION_DOT": -0.01996013, "MEAN_MOTION_DDOT": 0}, "tle": {"line1": "1 66442U 25259W   25344.16668980 -.01996013  00000+0 -47755-1 0  9996", "line2": "2 66442  42.9998  62.3425 0001085 260.1871  39.1599 15.44131689  5863"}}, "geometry": {"type": "Point", "coordinates": [-52.63359643972321, -40.5899720702437]}}, {"type": "Feature", "properties": {"norad_id": 66443, "name": "STARLINK-35219", "group": "last-30-days", "lat": -42.484594632196824, "lon": -40.148510814066626, "alt_km": 436.5444060393402, "timestamp": "2025-12-10T11:33:52.171042+00:00", "meta": {"OBJECT_NAME": "STARLINK-35219", "OBJECT_ID": "2025-259X", "EPOCH": "2025-12-10T04:00:01.998720", "MEAN_MOTION": 15.45476674, "ECCENTRICITY": 0.0001217, "INCLINATION": 43.0005, "RA_OF_ASC_NODE": 62.3225, "ARG_OF_PERICENTER": 259.4135, "MEAN_ANOMALY": 47.9673, "EPHEMERIS_TYPE": 0, "CLASSIFICATION_TYPE": "U", "NORAD_CAT_ID": 66443, "ELEMENT_SET_NO": 999, "REV_AT_EPOCH": 575, "BSTAR": -0.04611, "MEAN_MOTION_DOT": -0.02016298, "MEAN_MOTION_DDOT": 0}, "tle": {"line1": "1 66443U 25259X   25344.16668980 -.02016298  00000+0 -46110-1 0  9990", "line2": "2 66443  43.0005  62.3225 0001217 259.4135  47.9673 15.45476674  5759"}}, "geometry": {"type": "Point", "coordinates": [-40.148510814066626, -42.484594632196824]}}, {"type": "Feature", "properties": {"norad_id": 66444, "name": "STARLINK-35360", "group": "last-30-days", "lat": -41.08939201364332, "lon": -8.921952237742675, "alt_km": 415.5022713143462, "timestamp": "2025-12-10T11:33:52.171053+00:00", "meta": {"OBJECT_NAME": "STARLINK-35360", "OBJECT_ID": "2025-259Y", "EPOCH": "2025-12-09T14:14:38.914944", "MEAN_MOTION": 15.50671448, "ECCENTRICITY": 0.0003008, "INCLINATION": 43.0004, "RA_OF_ASC_NODE": 65.6336, "ARG_OF_PERICENTER": 269.9974, "MEAN_ANOMALY": 90.0542, "EPHEMERIS_TYPE": 0, "CLASSIFICATION_TYPE": "U", "NORAD_CAT_ID": 66444, "ELEMENT_SET_NO": 999, "REV_AT_EPOCH": 568, "BSTAR": 0.0018101, "MEAN_MOTION_DOT": 0.00107686, "MEAN_MOTION_DDOT": 0}, "tle": {"line1": "1 66444U 25259Y   25343.59350596  .00107686  00000+0  18101-2 0  9996", "line2": "2 66444  43.0004  65.6336 0003008 269.9974  90.0542 15.50671448  5683"}}, "geometry": {"type": "Point", "coordinates": [-8.921952237742675, -41.08939201364332]}}, {"type": "Feature", "properties": {"norad_id": 66445, "name": "STARLINK-34698", "group": "last-30-days", "lat": -42.97944076470236, "lon": -29.124225541836932, "alt_km": 432.52420808723946, "timestamp": "2025-12-10T11:33:52.171063+00:00", "meta": {"OBJECT_NAME": "STARLINK-34698", "OBJECT_ID": "2025-259Z", "EPOCH": "2025-12-10T04:00:01.998720", "MEAN_MOTION": 15.46826667, "ECCENTRICITY": 0.0001433, "INCLINATION": 43.0005, "RA_OF_ASC_NODE": 62.3044, "ARG_OF_PERICENTER": 265.2841, "MEAN_ANOMALY": 48.7121, "EPHEMERIS_TYPE": 0, "CLASSIFICATION_TYPE": "U", "NORAD_CAT_ID": 66445, "ELEMENT_SET_NO": 999, "REV_AT_EPOCH": 575, "BSTAR": -0.044913, "MEAN_MOTION_DOT": -0.02053908, "MEAN_MOTION_DDOT": 0}, "tle": {"line1": "1 66445U 25259Z   25344.16668980 -.02053908  00000+0 -44913-1 0  9990", "line2": "2 66445  43.0005  62.3044 0001433 265.2841  48.7121 15.46826667  5758"}}, "geometry": {"type": "Point", "coordinates": [-29.124225541836932, -42.97944076470236]}}, {"type": "Feature", "properties": {"norad_id": 66446, "name": "STARLINK-34986", "group": "last-30-days", "lat": -41.526204724567734, "lon": -11.426485183758386, "alt_km": 415.66392478358466, "timestamp": "2025-12-10T11:33:52.171073+00:00", "meta": {"OBJECT_NAME": "STARLINK-34986", "OBJECT_ID": "2025-259AA", "EPOCH": "2025-12-09T14:15:08.032608", "MEAN_MOTION": 15.5062385, "ECCENTRICITY": 0.0002711, "INCLINATION": 42.9993, "RA_OF_ASC_NODE": 65.636, "ARG_OF_PERICENTER": 273.1662, "MEAN_ANOMALY": 86.8888, "EPHEMERIS_TYPE": 0, "CLASSIFICATION_TYPE": "U", "NORAD_CAT_ID": 66446, "ELEMENT_SET_NO": 999, "REV_AT_EPOCH": 568, "BSTAR": 0.0023987, "MEAN_MOTION_DOT": 0.00143221, "MEAN_MOTION_DDOT": 0}, "tle": {"line1": "1 66446U 25259AA  25343.59384297  .00143221  00000+0  23987-2 0  9996", "line2": "2 66446  42.9993  65.6360 0002711 273.1662  86.8888 15.50623850  5688"}}, "geometry": {"type": "Point", "coordinates": [-11.426485183758386, -41.526204724567734]}}, {"type": "Feature", "properties": {"norad_id": 66447, "name": "STARLINK-34851", "group": "last-30-days", "lat": -40.54009467241409, "lon": -6.182045834129689, "alt_km": 416.17380696346845, "timestamp": "2025-12-10T11:33:52.171083+00:00", "meta": {"OBJECT_NAME": "STARLINK-34851", "OBJECT_ID": "2025-259AB", "EPOCH": "2025-12-09T12:41:24.098496", "MEAN_MOTION": 15.5066298, "ECCENTRICITY": 0.00015853, "INCLINATION": 43.0003, "RA_OF_ASC_NODE": 66.0078, "ARG_OF_PERICENTER": 255.9268, "MEAN_ANOMALY": 104.1416, "EPHEMERIS_TYPE": 0, "CLASSIFICATION_TYPE": "U", "NORAD_CAT_ID": 66447, "ELEMENT_SET_NO": 999, "REV_AT_EPOCH": 556, "BSTAR": 0.0028157194, "MEAN_MOTION_DOT": 0.00168962, "MEAN_MOTION_DDOT": 0}, "tle": {"line1": "1 66447U 25259AB  25343.52875114  .00168962  00000+0  28157-2 0  9996", "line2": "2 66447  43.0003  66.0078 0001585 255.9268 104.1416 15.50662980  5567"}}, "geometry": {"type": "Point", "coordinates": [-6.182045834129689, -40.54009467241409]}}, {"type": "Feature", "properties": {"norad_id": 66448, "name": "STARLINK-35355", "group": "last-30-days", "lat": -40.14457293276484, "lon": -4.411144916576794, "alt_km": 416.68900324270544, "timestamp": "2025-12-10T11:33:52.171093+00:00", "meta": {"OBJECT_NAME": "STARLINK-35355", "OBJECT_ID": "2025-259AC", "EPOCH": "2025-12-09T14:13:40.010016", "MEAN_MOTION": 15.50575554, "ECCENTRICITY": 0.0001458, "INCLINATION": 42.9997, "RA_OF_ASC_NODE": 65.6281, "ARG_OF_PERICENTER": 275.8092, "MEAN_ANOMALY": 84.2602, "EPHEMERIS_TYPE": 0, "CLASSIFICATION_TYPE": "U", "NORAD_CAT_ID": 66448, "ELEMENT_SET_NO": 999, "REV_AT_EPOCH": 568, "BSTAR": 0.0020891, "MEAN_MOTION_DOT": 0.00124162, "MEAN_MOTION_DDOT": 0}, "tle": {"line1": "1 66448U 25259AC  25343.59282419  .00124162  00000+0  20891-2 0  9995", "line2": "2 66448  42.9997  65.6281 0001458 275.8092  84.2602 15.50575554  5682"}}, "geometry": {"type": "Point", "coordinates": [-4.411144916576794, -40.14457293276484]}}, {"type": "Feature", "properties": {"norad_id": 66449, "name": "STARLINK-34720", "group": "last-30-days", "lat": -39.577431225940714, "lon": -2.0867479187062528, "alt_km": 416.78585582622054, "timestamp": "2025-12-10T11:33:52.171103+00:00", "meta": {"OBJECT_NAME": "STARLINK-34720", "OBJECT_ID": "2025-259AD", "EPOCH": "2025-12-09T14:13:10.265952", "MEAN_MOTION": 15.5058504, "ECCENTRICITY": 0.0001466, "INCLINATION": 42.9996, "RA_OF_ASC_NODE": 65.6255, "ARG_OF_PERICENTER": 272.035, "MEAN_ANOMALY": 88.0342, "EPHEMERIS_TYPE": 0, "CLASSIFICATION_TYPE": "U", "NORAD_CAT_ID": 66449, "ELEMENT_SET_NO": 999, "REV_AT_EPOCH": 557, "BSTAR": 0.0016251, "MEAN_MOTION_DOT": 0.00096197, "MEAN_MOTION_DDOT": 0}, "tle": {"line1": "1 66449U 25259AD  25343.59247993  .00096197  00000+0  16251-2 0  9995", "line2": "2 66449  42.9996  65.6255 0001466 272.0350  88.0342 15.50585040  5570"}}, "geometry": {"type": "Point", "coordinates": [-2.0867479187062528, -39.577431225940714]}}, {"type": "Feature", "properties": {"norad_id": 66450, "name": "STARLINK-35334", "group": "last-30-days", "lat": -38.826460201050615, "lon": 0.6932176167993295, "alt_km": 415.84268423470803, "timestamp": "2025-12-10T11:33:52.171113+00:00", "meta": {"OBJECT_NAME": "STARLINK-35334", "OBJECT_ID": "2025-259AE", "EPOCH": "2025-12-09T14:12:39.531744", "MEAN_MOTION": 15.50689398, "ECCENTRICITY": 0.0002489, "INCLINATION": 43.0018, "RA_OF_ASC_NODE": 65.6216, "ARG_OF_PERICENTER": 270.8736, "MEAN_ANOMALY": 89.1839, "EPHEMERIS_TYPE": 0, "CLASSIFICATION_TYPE": "U", "NORAD_CAT_ID": 66450, "ELEMENT_SET_NO": 999, "REV_AT_EPOCH": 568, "BSTAR": 0.0014656, "MEAN_MOTION_DOT": 0.00086945, "MEAN_MOTION_DDOT": 0}, "tle": {"line1": "1 66450U 25259AE  25343.59212421  .00086945  00000+0  14656-2 0  9992", "line2": "2 66450  43.0018  65.6216 0002489 270.8736  89.1839 15.50689398  5682"}}, "geometry": {"type": "Point", "coordinates": [0.6932176167993295, -38.826460201050615]}}, {"type": "Feature", "properties": {"norad_id": 66454, "name": "VIASAT-3 F2", "group": "last-30-days", "lat": -3.9485550547370547, "lon": 158.10255183804355, "alt_km": 13399.119707791211, "timestamp": "2025-12-10T11:33:52.171127+00:00", "meta": {"OBJECT_NAME": "VIASAT-3 F2", "OBJECT_ID": "2025-261A", "EPOCH": "2025-12-06T17:04:58.090944", "MEAN_MOTION": 2.24196708, "ECCENTRICITY": 0.23030921, "INCLINATION": 5.516, "RA_OF_ASC_NODE": 292.8248, "ARG_OF_PERICENTER": 186.81, "MEAN_ANOMALY": 221.0538, "EPHEMERIS_TYPE": 0, "CLASSIFICATION_TYPE": "U", "NORAD_CAT_ID": 66454, "ELEMENT_SET_NO": 999, "REV_AT_EPOCH": 51, "BSTAR": 0, "MEAN_MOTION_DOT": -7.3e-07, "MEAN_MOTION_DDOT": 0}, "tle": {"line1": "1 66454U 25261A   25340.71178346 -.00000073  00000+0  00000+0 0  9991", "line2": "2 66454   5.5160 292.8248 2303092 186.8100 221.0538  2.24196708   518"}}, "geometry": {"type": "Point", "coordinates": [158.10255183804355, -3.9485550547370547]}}]}